NORAD_CAT_ID,OBJECT_NAME,OBJECT_TYPE,EPOCH,MEAN_MOTION,ECCENTRICITY,INCLINATION,RA_OF_ASC_NODE,ARG_OF_PERICENTER,MEAN_ANOMALY,BSTAR,MEAN_MOTION_DOT,MEAN_MOTION_DDOT,TLE_LINE0,TLE_LINE1,TLE_LINE2,SEMIMAJOR_AXIS,PERIOD,APOGEE,PERIGEE,DECAYED
55396.0,STARLINK-5283,PAYLOAD,2023-09-16 01:22:27,14.99228194,0.0002938,70.0018,187.7524,265.3343,94.7481,0.0012227,0.00014871,0.0,0 STARLINK-5283,1 55396U 23014F   23259.05725929  .00014871  00000-0  12227-2 0  9995,2 55396  70.0018 187.7524 0002938 265.3343  94.7481 14.99228194 35468,6947.417,96.049,571.323,567.241,0.0
55396.0,STARLINK-5283,PAYLOAD,2023-09-16 04:34:43,14.9913752,0.0002478,70.0017,187.4151,269.2413,90.8462,0.00026576,3.146e-05,0.0,0 STARLINK-5283,1 55396U 23014F   23259.19078680  .00003146  00000-0  26576-3 0  9991,2 55396  70.0017 187.4151 0002478 269.2413  90.8462 14.99137520 35480,6947.697,96.055,571.283,567.84,0.0
55396.0,STARLINK-5283,PAYLOAD,2023-09-16 10:59:03,14.99141115,0.0002825,70.0014,186.7408,285.3295,74.7552,0.00010095,1.137e-05,0.0,0 STARLINK-5283,1 55396U 23014F   23259.45768483  .00001137  00000-0  10095-3 0  9994,2 55396  70.0014 186.7408 0002825 285.3295  74.7552 14.99141115 36462,6947.686,96.055,571.513,567.588,0.0
55396.0,STARLINK-5283,PAYLOAD,2023-09-17 01:23:48,14.99138169,0.0002917,70.0012,185.2249,269.1274,90.9551,-5.3267e-05,-7.43e-06,0.0,0 STARLINK-5283,1 55396U 23014F   23260.05820563 -.00000743  00000-0 -53267-4 0  9993,2 55396  70.0012 185.2249 0002917 269.1274  90.9551 14.99138169 35616,6947.695,96.055,571.586,567.533,0.0
55396.0,STARLINK-5283,PAYLOAD,2023-09-17 04:35:58,14.9914173,0.0002993,70.0009,184.888,273.5073,86.5744,-1.4009e-05,-2.64e-06,0.0,0 STARLINK-5283,1 55396U 23014F   23260.19165016 -.00000264  00000-0 -14009-4 0  9992,2 55396  70.0009 184.8880 0002993 273.5073  86.5744 14.99141730 36577,6947.684,96.055,571.628,567.469,0.0
55396.0,STARLINK-5283,PAYLOAD,2023-09-18 01:25:02,14.99146195,0.0002721,70.0014,182.6975,266.6399,93.4449,5.5569e-05,5.84e-06,0.0,0 STARLINK-5283,1 55396U 23014F   23261.05905488  .00000584  00000-0  55569-4 0  9992,2 55396  70.0014 182.6975 0002721 266.6399  93.4449 14.99146195 35766,6947.67,96.055,571.425,567.645,0.0
55396.0,STARLINK-5283,PAYLOAD,2023-09-18 04:37:14,14.99121324,0.0002746,70.0011,182.3613,283.0403,77.045,-0.00024876,-3.122e-05,0.0,0 STARLINK-5283,1 55396U 23014F   23261.19252692 -.00003122  00000-0 -24876-3 0  9998,2 55396  70.0011 182.3613 0002746 283.0403  77.0450 14.99121324 35784,6947.747,96.056,571.52,567.704,0.0
55396.0,STARLINK-5283,PAYLOAD,2023-09-18 20:38:31,14.98809168,0.0004051,70.0017,180.6803,280.2489,79.8213,-0.0032757,-0.00039448,0.0,0 STARLINK-5283,1 55396U 23014F   23261.86008468 -.00039448  00000-0 -32757-2 0  9998,2 55396  70.0017 180.6803 0004051 280.2489  79.8213 14.98809168 36827,6948.711,96.076,573.391,567.762,0.0
55396.0,STARLINK-5283,PAYLOAD,2023-09-19 01:26:56,14.98725479,0.0002804,70.002,180.175,264.3617,95.7222,-0.0040859,-0.00049004,0.0,0 STARLINK-5283,1 55396U 23014F   23262.06037766 -.00049004  00000-0 -40859-2 0  9995,2 55396  70.0020 180.1750 0002804 264.3617  95.7222 14.98725479 35915,6948.97,96.082,572.784,568.887,0.0
55396.0,STARLINK-5283,PAYLOAD,2023-09-19 04:39:12,14.98685195,0.0003229,70.0011,179.838,268.97,91.1089,-0.004396,-0.00052636,0.0,0 STARLINK-5283,1 55396U 23014F   23262.19389307 -.00052636  00000-0 -43960-2 0  9991,2 55396  70.0011 179.8380 0003229 268.9700  91.1089 14.98685195 35937,6949.095,96.084,573.204,568.716,0.0
55396.0,STARLINK-5283,PAYLOAD,2023-09-19 19:04:15,14.98631584,0.0003134,70.0014,178.3225,274.6495,85.4307,-0.0043347,-0.00051837,0.0,0 STARLINK-5283,1 55396U 23014F   23262.79462101 -.00051837  00000-0 -43347-2 0  9992,2 55396  70.0014 178.3225 0003134 274.6495  85.4307 14.98631584 36025,6949.26,96.088,573.303,568.948,0.0
55396.0,STARLINK-5283,PAYLOAD,2023-09-20 04:40:57,14.9861661,0.0002857,70.0018,177.3138,257.3852,102.6987,-0.00433,-0.0005176,0.0,0 STARLINK-5283,1 55396U 23014F   23263.19511160 -.00051760  00000-0 -43300-2 0  9991,2 55396  70.0018 177.3138 0002857 257.3852 102.6987 14.98616610 36082,6949.307,96.089,573.157,569.186,0.0
55396.0,STARLINK-5283,PAYLOAD,2023-09-20 11:05:27,14.98582825,0.0002709,70.0022,176.6404,270.0885,89.9963,-0.0041171,-0.00049194,0.0,0 STARLINK-5283,1 55396U 23014F   23263.46212630 -.00049194  00000-0 -41171-2 0  9993,2 55396  70.0022 176.6404 0002709 270.0885  89.9963 14.98582825 37069,6949.411,96.091,573.159,569.394,0.0
55396.0,STARLINK-5283,PAYLOAD,2023-09-20 19:06:07,14.98386586,0.0002964,70.0024,175.7987,269.9407,90.1412,-0.0010212,-0.00012274,0.0,0 STARLINK-5283,1 55396U 23014F   23263.79592251 -.00012274  00000-0 -10212-2 0  9990,2 55396  70.0024 175.7987 0002964 269.9407  90.1412 14.98386586 36177,6950.018,96.103,573.943,569.823,0.0
55396.0,STARLINK-5283,PAYLOAD,2023-09-20 22:18:23,14.98383026,0.0002905,70.0021,175.4619,268.647,91.4356,-0.0009979,-0.00011996,0.0,0 STARLINK-5283,1 55396U 23014F   23263.92943984 -.00011996  00000-0 -99790-3 0  9997,2 55396  70.0021 175.4619 0002905 268.6470  91.4356 14.98383026 37138,6950.029,96.104,573.913,569.875,0.0
55396.0,STARLINK-5283,PAYLOAD,2023-09-21 04:42:55,14.98380637,0.0002914,70.0021,174.7886,268.4385,91.644,-0.00092829,-0.00011166,0.0,0 STARLINK-5283,1 55396U 23014F   23264.19647202 -.00011166  00000-0 -92829-3 0  9996,2 55396  70.0021 174.7886 0002914 268.4385  91.6440 14.98380637 37174,6950.036,96.104,573.927,569.876,0.0
55396.0,STARLINK-5283,PAYLOAD,2023-09-21 19:08:08,14.98327819,0.0002959,70.0019,173.274,271.9109,88.1711,9.2261e-05,1.008e-05,0.0,0 STARLINK-5283,1 55396U 23014F   23264.79731834  .00001008  00000-0  92261-4 0  9990,2 55396  70.0019 173.2740 0002959 271.9109  88.1711 14.98327819 36327,6950.2,96.107,574.121,570.008,0.0
55396.0,STARLINK-5283,PAYLOAD,2023-09-21 20:44:16,14.98328945,0.000294,70.0019,173.1054,272.1585,87.9237,9.5014e-05,1.041e-05,0.0,0 STARLINK-5283,1 55396U 23014F   23264.86407765  .00001041  00000-0  95014-4 0  9997,2 55396  70.0019 173.1054 0002940 272.1585  87.9237 14.98328945 37271,6950.196,96.107,574.105,570.018,0.0
55396.0,STARLINK-5283,PAYLOAD,2023-09-22 04:44:56,14.98333596,0.0002473,70.0016,172.2617,257.4,102.6883,0.00013461,1.514e-05,0.0,0 STARLINK-5283,1 55396U 23014F   23265.19787328  .00001514  00000-0  13461-3 0  9990,2 55396  70.0016 172.2617 0002473 257.4000 102.6883 14.98333596 36383,6950.182,96.107,573.766,570.328,0.0
55396.0,STARLINK-5283,PAYLOAD,2023-09-22 20:46:17,14.98325713,0.0002696,70.0018,170.5784,269.3643,90.7207,8.9806e-05,9.79e-06,0.0,0 STARLINK-5283,1 55396U 23014F   23265.86547872  .00000979  00000-0  89806-4 0  9993,2 55396  70.0018 170.5784 0002696 269.3643  90.7207 14.98325713 37428,6950.206,96.107,573.945,570.197,0.0
55396.0,STARLINK-5283,PAYLOAD,2023-09-23 01:34:41,14.98329467,0.0002549,70.0019,170.0738,269.4006,90.6861,7.656e-05,8.21e-06,0.0,0 STARLINK-5283,1 55396U 23014F   23266.06575718  .00000821  00000-0  76560-4 0  9995,2 55396  70.0019 170.0738 0002549 269.4006  90.6861 14.98329467 36518,6950.195,96.107,573.831,570.288,0.0
55396.0,STARLINK-5283,PAYLOAD,2023-09-23 03:10:49,14.98328562,0.0002478,70.0018,169.9052,266.2655,93.822,0.00013121,1.473e-05,0.0,0 STARLINK-5283,1 55396U 23014F   23266.13251608  .00001473  00000-0  13121-3 0  9999,2 55396  70.0018 169.9052 0002478 266.2655  93.8220 14.98328562 37463,6950.197,96.107,573.785,570.34,0.0
55396.0,STARLINK-5283,PAYLOAD,2023-09-24 01:36:42,14.98333765,0.0002633,70.0017,167.5494,261.0746,99.0115,-2.5482e-05,-3.97e-06,0.0,0 STARLINK-5283,1 55396U 23014F   23267.06715541 -.00000397  00000-0 -25482-4 0  9993,2 55396  70.0017 167.5494 0002633 261.0746  99.0115 14.98333765 36666,6950.181,96.107,573.876,570.216,0.0
55396.0,STARLINK-5283,PAYLOAD,2023-09-24 03:12:50,14.98334866,0.0002695,70.0018,167.3805,264.8114,95.2738,-6.4714e-06,-1.7e-06,0.0,0 STARLINK-5283,1 55396U 23014F   23267.13391406 -.00000170  00000-0 -64714-5 0  9992,2 55396  70.0018 167.3805 0002695 264.8114  95.2738 14.98334866 37617,6950.178,96.107,573.916,570.17,0.0
55396.0,STARLINK-5283,PAYLOAD,2023-09-24 22:26:27,14.9832591,0.0002717,70.0018,165.3626,265.4235,94.6613,6.8867e-06,-1.1e-07,0.0,0 STARLINK-5283,1 55396U 23014F   23267.93503861 -.00000011  00000-0  68867-5 0  9996,2 55396  70.0018 165.3626 0002717 265.4235  94.6613 14.98325910 37730,6950.206,96.107,573.959,570.182,0.0
55396.0,STARLINK-5283,PAYLOAD,2023-09-25 01:38:43,14.98326144,0.0002703,70.0019,165.0259,266.6908,93.3942,3.4819e-05,3.22e-06,0.0,0 STARLINK-5283,1 55396U 23014F   23268.06855791  .00000322  00000-0  34819-4 0  9996,2 55396  70.0019 165.0259 0002703 266.6908  93.3942 14.98326144 36814,6950.205,96.107,573.948,570.191,0.0
55396.0,STARLINK-5283,PAYLOAD,2023-09-25 03:14:51,14.98327322,0.000277,70.0019,164.8581,266.9059,93.1783,5.5199e-05,5.66e-06,0.0,0 STARLINK-5283,1 55396U 23014F   23268.13531675  .00000566  00000-0  55199-4 0  9990,2 55396  70.0019 164.8581 0002770 266.9059  93.1783 14.98327322 37768,6950.201,96.107,573.991,570.141,0.0
55396.0,STARLINK-5283,PAYLOAD,2023-09-25 19:16:11,14.98343541,0.0003002,70.0016,163.1758,266.7816,93.2999,2.8216e-05,2.44e-06,0.0,0 STARLINK-5283,1 55396U 23014F   23268.80290526  .00000244  00000-0  28216-4 0  9994,2 55396  70.0016 163.1758 0003002 266.7816  93.2999 14.98343541 36929,6950.151,96.106,574.102,569.93,0.0
55396.0,STARLINK-5283,PAYLOAD,2023-09-25 20:52:19,14.98343702,0.0002924,70.0016,163.0069,267.6471,92.4353,2.9534e-05,2.6e-06,0.0,0 STARLINK-5283,1 55396U 23014F   23268.86966478  .00000260  00000-0  29534-4 0  9998,2 55396  70.0016 163.0069 0002924 267.6471  92.4353 14.98343702 37871,6950.151,96.106,574.048,569.983,0.0
55396.0,STARLINK-5283,PAYLOAD,2023-09-26 01:40:42,14.98349835,0.0003065,70.0007,162.5,268.6488,91.432,0.00015029,1.702e-05,0.0,0 STARLINK-5283,1 55396U 23014F   23269.06993536  .00001702  00000-0  15029-3 0  9991,2 55396  70.0007 162.5000 0003065 268.6488  91.4320 14.98349835 36961,6950.132,96.106,574.127,569.866,0.0
